0 DELTA 1 DEB
1 09040U 75004DE  13281.77264410  .00000144  00000-0  50758-4 0   781
2 09040 097.9646 214.9151 0047520 202.9107 227.2437 14.46561706942998
0 DELTA 1 DEB
1 09040U 75004DE  13284.05354520  .00000144  00000-0  50840-4 0   790
2 09040 097.9651 217.0600 0047686 195.8856 225.3382 14.46563587943326
0 DELTA 1 DEB
1 09040U 75004DE  13286.05973501  .00000121  00000-0  44390-4 0   808
2 09040 097.9655 218.9465 0047841 189.7463 232.8085 14.46564242943612
0 DELTA 1 DEB
1 09040U 75004DE  13288.06593990  .00000251  00000-0  79966-4 0   813
2 09040 097.9659 220.8329 0047985 183.5500 240.4194 14.46565025943908
0 DELTA 1 DEB
1 09040U 75004DE  13290.07210887  .00000222  00000-0  71940-4 0   821
2 09040 097.9662 222.7197 0048139 177.4087 247.7962 14.46565773944195
0 DELTA 1 DEB
1 09040U 75004DE  13292.36584882  .00000242  00000-0  77532-4 0   830
2 09040 097.9664 224.8771 0048319 170.4594 312.6703 14.46567191944522
0 DELTA 1 DEB
1 09040U 75004DE  13294.37115447  .00000231  00000-0  74399-4 0   847
2 09040 097.9665 226.7634 0048454 164.4071 315.4794 14.46568792944816
